     2.100          NAVIGATION                              RINEX VERSION / TYPE
fic2rin                                 01/05/2017 00:07:46 PGM / RUN BY / DATE
                                                            END OF HEADER
 3 17  1  4  8  0  0.0 -.104937702417D-03 -.113686837722D-11  .000000000000D+00
     .350000000000D+02 -.315937500000D+02  .448018661776D-08  .166219831609D+00
    -.166520476341D-05  .404584221542D-03  .106934458017D-04  .515354968834D+04
     .288000000000D+06 -.372529029846D-08  .115615054222D+01  .372529029846D-07
     .959348946517D+00  .171812500000D+03  .849155977841D+00 -.792925885689D-08
     .221437795202D-10  .100000000000D+01  .193000000000D+04  .000000000000D+00
     .240000000000D+01  .000000000000D+00  .186264514923D-08  .350000000000D+02
     .280806000000D+06  .400000000000D+01
 5 17  1  4  8  0  0.0 -.682133249938D-04  .216004991671D-11  .000000000000D+00
     .290000000000D+02 -.188125000000D+02  .470376735936D-08 -.184584701869D+01
    -.104680657387D-05  .490254105534D-02  .109374523163D-04  .515366359520D+04
     .288000000000D+06  .242143869400D-07  .114125695654D+01 -.558793544769D-07
     .946357593215D+00  .161218750000D+03  .566663778632D+00 -.801426239763D-08
     .564309220030D-10  .100000000000D+01  .193000000000D+04  .000000000000D+00
     .240000000000D+01  .000000000000D+00 -.107102096081D-07  .290000000000D+02
     .280806000000D+06  .400000000000D+01
 6 17  1  4  8  0  0.0  .294770579785D-03  .500222085975D-11  .000000000000D+00
     .660000000000D+02 -.772500000000D+02  .454268922124D-08  .191567314752D+01
    -.404566526413D-05  .488298013806D-03  .611133873463D-05  .515359481430D+04
     .288000000000D+06 -.484287738800D-07  .106021805948D+00 -.130385160446D-07
     .966317610916D+00  .262218750000D+03 -.147325708163D+01 -.815712549130D-08
    -.228223792151D-09  .100000000000D+01  .193000000000D+04  .000000000000D+00
     .240000000000D+01  .000000000000D+00  .419095158577D-08  .660000000000D+02
     .280806000000D+06  .400000000000D+01
 8 17  1  4  8  0  0.0 -.447914935648D-04 -.136424205266D-11  .000000000000D+00
     .117000000000D+03  .318750000000D+02  .466519432407D-08 -.192745055092D+01
     .179372727871D-05  .232816522475D-02  .580213963985D-05  .515356514359D+04
     .288000000000D+06 -.689178705215D-07 -.947518431877D+00  .186264514923D-07
     .965394885578D+00  .271843750000D+03 -.939096155021D+00 -.821855662159D-08
     .287154818294D-09  .100000000000D+01  .193000000000D+04  .000000000000D+00
     .340000000000D+01  .000000000000D+00  .512227416039D-08  .117000000000D+03
     .280806000000D+06  .400000000000D+01
 9 17  1  4  8  0  0.0  .276796054095D-03  .738964445191D-11  .000000000000D+00
     .500000000000D+02  .444062500000D+02  .481841499204D-08 -.243370066245D+01
     .232085585594D-05  .868467497639D-03  .718049705029D-05  .515371441078D+04
     .288000000000D+06 -.167638063431D-07  .219391638894D+01  .186264514923D-08
     .953783236649D+00  .238718750000D+03  .174221367520D+01 -.821927093705D-08
     .155720772109D-09  .100000000000D+01  .193000000000D+04  .000000000000D+00
     .240000000000D+01  .000000000000D+00  .139698386192D-08  .500000000000D+02
     .280806000000D+06  .400000000000D+01
10 17  1  4  8  0  0.0 -.114728696644D-03  .125055521494D-11  .000000000000D+00
     .590000000000D+02 -.350625000000D+02  .438482550273D-08 -.533028372006D+00
    -.196136534214D-05  .207908451557D-02  .116564333439D-04  .515368008614D+04
     .288000000000D+06  .968575477600D-07  .115233762472D+01 -.372529029846D-08
     .959547253840D+00  .155312500000D+03 -.294260574647D+01 -.792854454142D-08
    -.864321716755D-10  .100000000000D+01  .193000000000D+04  .000000000000D+00
     .240000000000D+01  .000000000000D+00  .232830643654D-08  .590000000000D+02
     .280806000000D+06  .400000000000D+01
12 17  1  4  8  0  0.0  .389138702303D-03 -.227373675443D-12  .000000000000D+00
     .630000000000D+02  .394062500000D+02  .377229998858D-08  .286182205255D+00
     .193156301975D-05  .623211776838D-02  .102780759335D-04  .515361053658D+04
     .288000000000D+06  .186264514923D-08 -.193013827522D+01  .102445483208D-06
     .989755305270D+00  .200843750000D+03  .779549321827D+00 -.779603902203D-08
    -.857178562071D-11  .100000000000D+01  .193000000000D+04  .000000000000D+00
     .340000000000D+01  .000000000000D+00 -.125728547573D-07  .630000000000D+02
     .280806000000D+06  .400000000000D+01
13 17  1  4  8  0  0.0 -.633471645415D-04 -.181898940355D-11  .000000000000D+00
     .760000000000D+02  .467187500000D+02  .447590072495D-08  .191379808153D+01
     .243075191975D-05  .408078357577D-02  .657141208649D-05  .515368369675D+04
     .288000000000D+06  .147148966789D-06  .231798521606D+01  .447034835815D-07
     .970055798169D+00  .257843750000D+03  .186161990444D+01 -.805069248651D-08
     .177150236161D-09  .100000000000D+01  .193000000000D+04  .000000000000D+00
     .240000000000D+01  .000000000000D+00 -.111758708954D-07  .760000000000D+02
     .280806000000D+06  .400000000000D+01
15 17  1  4  8  0  0.0 -.339471269399D-03 -.113686837722D-11  .000000000000D+00
     .270000000000D+02  .557812500000D+02  .536522348309D-08  .283687174332D+01
     .281631946564D-05  .898592954036D-02  .730343163013D-05  .515372403908D+04
     .288000000000D+06  .186264514923D-08  .213586547206D+01 -.782310962677D-07
     .929410123216D+00  .223375000000D+03  .558189780308D+00 -.841606484860D-08
     .254296306748D-09  .100000000000D+01  .193000000000D+04  .000000000000D+00
     .240000000000D+01  .000000000000D+00 -.107102096081D-07  .270000000000D+02
     .280806000000D+06  .400000000000D+01
16 17  1  4  8  0  0.0  .218614004552D-04  .136424205266D-11  .000000000000D+00
     .580000000000D+02  .230000000000D+02  .370122559947D-08 -.165906496354D+01
     .951811671257D-06  .896028906573D-02  .100098550320D-04  .515362888718D+04
     .288000000000D+06  .279396772385D-07 -.191130519890D+01 -.145286321640D-06
     .990235775843D+00  .198843750000D+03  .382491390862D+00 -.763460372618D-08
     .126433837905D-09  .100000000000D+01  .193000000000D+04  .000000000000D+00
     .240000000000D+01  .000000000000D+00 -.102445483208D-07  .580000000000D+02
     .280806000000D+06  .400000000000D+01
17 17  1  4  8  0  0.0 -.195251312107D-03  .102318153949D-11  .000000000000D+00
     .870000000000D+02  .237500000000D+02  .433268047353D-08 -.271703522159D+01
     .130012631416D-05  .116086000344D-01  .476464629173D-05  .515356027794D+04
     .288000000000D+06  .214204192162D-06 -.891886496847D+00  .149011611938D-07
     .978605609297D+00  .295343750000D+03 -.188398928385D+01 -.797926093967D-08
     .284297556420D-09  .100000000000D+01  .193000000000D+04  .000000000000D+00
     .340000000000D+01  .000000000000D+00 -.107102096081D-07  .870000000000D+02
     .280806000000D+06  .400000000000D+01
19 17  1  4  8  0  0.0 -.516548752785D-03  .909494701773D-12  .000000000000D+00
     .850000000000D+02  .204375000000D+02  .446875757026D-08  .467596417519D+00
     .119954347610D-05  .102143478580D-01  .484474003315D-05  .515364192200D+04
     .288000000000D+06 -.987201929092D-07 -.843685847725D+00  .145286321640D-06
     .975823845700D+00  .295781250000D+03  .903235784585D+00 -.832713257278D-08
     .141791620476D-09  .100000000000D+01  .193000000000D+04  .000000000000D+00
     .340000000000D+01  .000000000000D+00 -.149011611938D-07  .850000000000D+02
     .280806000000D+06  .400000000000D+01
20 17  1  4  8  0  0.0  .453918240964D-03  .181898940355D-11  .000000000000D+00
     .570000000000D+02 -.293437500000D+02  .515271463125D-08  .274534208078D+01
    -.154040753841D-05  .472474598791D-02  .112205743790D-04  .515362479973D+04
     .288000000000D+06  .875443220139D-07  .106382405014D+01 -.298023223877D-07
     .926461136379D+00  .142968750000D+03  .153077938916D+01 -.826105839196D-08
    -.746459664470D-10  .100000000000D+01  .193000000000D+04  .000000000000D+00
     .240000000000D+01  .000000000000D+00 -.838190317154D-08  .570000000000D+02
     .280806000000D+06  .400000000000D+01
21 17  1  4  8  0  0.0 -.526573974639D-03  .125055521494D-11  .000000000000D+00
     .340000000000D+02 -.636875000000D+02  .545951312492D-08 -.207575642107D+00
    -.321306288242D-05  .236517901067D-01  .584684312344D-05  .515375934410D+04
     .288000000000D+06 -.292435288429D-06  .745131252565D-01  .186264514923D-06
     .938687215290D+00  .257812500000D+03 -.172729533987D+01 -.909073580849D-08
    -.133576992589D-09  .100000000000D+01  .193000000000D+04  .000000000000D+00
     .240000000000D+01  .000000000000D+00 -.977888703346D-08  .340000000000D+02
     .280806000000D+06  .400000000000D+01
22 17  1  4  8  0  0.0  .142247416079D-03 -.112549969344D-10  .000000000000D+00
     .410000000000D+02 -.377187500000D+02  .525414742776D-08  .311370136262D+01
    -.201351940632D-05  .731129827909D-02  .103190541267D-04  .515363021278D+04
     .288000000000D+06  .726431608200D-07  .111551784189D+01 -.428408384323D-07
     .923088293898D+00  .157687500000D+03 -.182849041878D+01 -.818855537191D-08
     .892894335490D-11  .100000000000D+01  .193000000000D+04  .000000000000D+00
     .240000000000D+01  .000000000000D+00 -.176951289177D-07  .410000000000D+02
     .280806000000D+06  .400000000000D+01
23 17  1  4  8  0  0.0 -.201694667339D-03 -.113686837722D-11  .000000000000D+00
     .540000000000D+02  .478437500000D+02  .501449458811D-08  .242822126329D+01
     .234320759773D-05  .111727024196D-01  .740773975849D-05  .515355776978D+04
     .288000000000D+06 -.175088644028D-06  .219707244598D+01 -.201165676117D-06
     .944677387914D+00  .228468750000D+03 -.251816776174D+01 -.819605568433D-08
     .205365697163D-09  .100000000000D+01  .193000000000D+04  .000000000000D+00
     .240000000000D+01  .000000000000D+00 -.200234353542D-07  .540000000000D+02
     .280806000000D+06  .400000000000D+01
